{"type": "FeatureCollection", "features": [ {"type": "Feature", "properties": {"norad_id": 66535, "name": "STARLINK-35514", "group": "last-30-days", "lat": 42.85777078374931, "lon": 137.2568487704228, "alt_km": 408.3021886218585, "timestamp": "2025-12-14T18:52:54.241673+00:00", "meta": {"OBJECT_NAME": "STARLINK-35514", "OBJECT_ID": "2025-265V", "EPOCH": "2025-12-13T20:50:15.389952", "MEAN_MOTION": 15.5059995, "ECCENTRICITY": 0.00013283, "INCLINATION": 43.0006, "RA_OF_ASC_NODE": 47.3326, "ARG_OF_PERICENTER": 273.9842, "MEAN_ANOMALY": 86.0866, "EPHEMERIS_TYPE": 0, "CLASSIFICATION_TYPE": "U", "NORAD_CAT_ID": 66535, "ELEMENT_SET_NO": 999, "REV_AT_EPOCH": 393, "BSTAR": 0.0023224297, "MEAN_MOTION_DOT": 0.00138443, "MEAN_MOTION_DDOT": 0}, "tle": {"line1": "1 66535U 25265V   25347.86823368  .00138443  00000+0  23224-2 0  9997", "line2": "2 66535  43.0006  47.3326 0001328 273.9842  86.0866 15.50599950  3931"}}, "geometry": {"type": "Point", "coordinates": [137.2568487704228, 42.85777078374931]}}, {"type": "Feature", "properties": {"norad_id": 66536, "name": "STARLINK-35640", "group": "last-30-days", "lat": 42.711508740864616, "lon": 139.77197523477568, "alt_km": 408.4213227407736, "timestamp": "2025-12-14T18:52:54.241683+00:00", "meta": {"OBJECT_NAME": "STARLINK-35640", "OBJECT_ID": "2025-265W", "EPOCH": "2025-12-13T20:49:45.750432", "MEAN_MOTION": 15.50614344, "ECCENTRICITY": 0.00012223, "INCLINATION": 42.9988, "RA_OF_ASC_NODE": 47.3298, "ARG_OF_PERICENTER": 270.2352, "MEAN_ANOMALY": 89.8368, "EPHEMERIS_TYPE": 0, "CLASSIFICATION_TYPE": "U", "NORAD_CAT_ID": 66536, "ELEMENT_SET_NO": 999, "REV_AT_EPOCH": 393, "BSTAR": 0.0016921557, "MEAN_MOTION_DOT": 0.00100336, "MEAN_MOTION_DDOT": 0}, "tle": {"line1": "1 66536U 25265W   25347.86789063  .00100336  00000+0  16922-2 0  9998", "line2": "2 66536  42.9988  47.3298 0001222 270.2352  89.8368 15.50614344  3939"}}, "geometry": {"type": "Point", "coordinates": [139.77197523477568, 42.711508740864616]}}, {"type": "Feature", "properties": {"norad_id": 66537, "name": "STARLINK-35582", "group": "last-30-days", "lat": 42.528634797186925, "lon": 142.09049695077675, "alt_km": 408.83771516048273, "timestamp": "2025-12-14T18:52:54.241695+00:00", "meta": {"OBJECT_NAME": "STARLINK-35582", "OBJECT_ID": "2025-265X", "EPOCH": "2025-12-13T20:49:15.925152", "MEAN_MOTION": 15.50566552, "ECCENTRICITY": 0.00014596, "INCLINATION": 42.9988, "RA_OF_ASC_NODE": 47.3277, "ARG_OF_PERICENTER": 280.0663, "MEAN_ANOMALY": 80.0033, "EPHEMERIS_TYPE": 0, "CLASSIFICATION_TYPE": "U", "NORAD_CAT_ID": 66537, "ELEMENT_SET_NO": 999, "REV_AT_EPOCH": 393, "BSTAR": 0.0013898713, "MEAN_MOTION_DOT": 0.00082018, "MEAN_MOTION_DDOT": 0}, "tle": {"line1": "1 66537U 25265X   25347.86754543  .00082018  00000+0  13899-2 0  9990", "line2": "2 66537  42.9988  47.3277 0001459 280.0663  80.0033 15.50566552  3932"}}, "geometry": {"type": "Point", "coordinates": [142.09049695077675, 42.528634797186925]}}, {"type": "Feature", "properties": {"norad_id": 66538, "name": "STARLINK-35577", "group": "last-30-days", "lat": 42.2195108010744, "lon": 145.1065242410149, "alt_km": 408.67544799980624, "timestamp": "2025-12-14T18:52:54.241707+00:00", "meta": {"OBJECT_NAME": "STARLINK-35577", "OBJECT_ID": "2025-265Y", "EPOCH": "2025-12-13T13:04:58.713600", "MEAN_MOTION": 15.50582443, "ECCENTRICITY": 0.00015653, "INCLINATION": 43.0005, "RA_OF_ASC_NODE": 49.2048, "ARG_OF_PERICENTER": 281.3101, "MEAN_ANOMALY": 78.7583, "EPHEMERIS_TYPE": 0, "CLASSIFICATION_TYPE": "U", "NORAD_CAT_ID": 66538, "ELEMENT_SET_NO": 999, "REV_AT_EPOCH": 388, "BSTAR": 0.0015469304, "MEAN_MOTION_DOT": 0.00091488, "MEAN_MOTION_DDOT": 0}, "tle": {"line1": "1 66538U 25265Y   25347.54512400  .00091488  00000+0  15469-2 0  9996", "line2": "2 66538  43.0005  49.2048 0001565 281.3101  78.7583 15.50582443  3886"}}, "geometry": {"type": "Point", "coordinates": [145.1065242410149, 42.2195108010744]}}, {"type": "Feature", "properties": {"norad_id": 66539, "name": "STARLINK-35697", "group": "last-30-days", "lat": 41.915523059094454, "lon": 147.48227114526247, "alt_km": 408.1122071454738, "timestamp": "2025-12-14T18:52:54.241716+00:00", "meta": {"OBJECT_NAME": "STARLINK-35697", "OBJECT_ID": "2025-265Z", "EPOCH": "2025-12-13T20:48:16.994304", "MEAN_MOTION": 15.50596344, "ECCENTRICITY": 9.144e-05, "INCLINATION": 42.9992, "RA_OF_ASC_NODE": 47.3206, "ARG_OF_PERICENTER": 317.4662, "MEAN_ANOMALY": 42.6127, "EPHEMERIS_TYPE": 0, "CLASSIFICATION_TYPE": "U", "NORAD_CAT_ID": 66539, "ELEMENT_SET_NO": 999, "REV_AT_EPOCH": 393, "BSTAR": 0.0020388747, "MEAN_MOTION_DOT": 0.00121213, "MEAN_MOTION_DDOT": 0}, "tle": {"line1": "1 66539U 25265Z   25347.86686336  .00121213  00000+0  20389-2 0  9999", "line2": "2 66539  42.9992  47.3206 0000914 317.4662  42.6127 15.50596344  3930"}}, "geometry": {"type": "Point", "coordinates": [147.48227114526247, 41.915523059094454]}}, {"type": "Feature", "properties": {"norad_id": 66540, "name": "STARLINK-35818", "group": "last-30-days", "lat": 41.55588075897971, "lon": 149.88259802684527, "alt_km": 408.9827090358558, "timestamp": "2025-12-14T18:52:54.241726+00:00", "meta": {"OBJECT_NAME": "STARLINK-35818", "OBJECT_ID": "2025-265AA", "EPOCH": "2025-12-13T20:47:47.046336", "MEAN_MOTION": 15.50597982, "ECCENTRICITY": 0.00016349, "INCLINATION": 42.9991, "RA_OF_ASC_NODE": 47.3178, "ARG_OF_PERICENTER": 285.0367, "MEAN_ANOMALY": 75.0313, "EPHEMERIS_TYPE": 0, "CLASSIFICATION_TYPE": "U", "NORAD_CAT_ID": 66540, "ELEMENT_SET_NO": 999, "REV_AT_EPOCH": 393, "BSTAR": 0.0014840689, "MEAN_MOTION_DOT": 0.00087763, "MEAN_MOTION_DDOT": 0}, "tle": {"line1": "1 66540U 25265AA  25347.86651674  .00087763  00000+0  14841-2 0  9995", "line2": "2 66540  42.9991  47.3178 0001634 285.0367  75.0313 15.50597982  3937"}}, "geometry": {"type": "Point", "coordinates": [149.88259802684527, 41.55588075897971]}}, {"type": "Feature", "properties": {"norad_id": 66541, "name": "STARLINK-35796", "group": "last-30-days", "lat": 39.70305283372347, "lon": 105.01535040065272, "alt_km": 436.7182890294307, "timestamp": "2025-12-14T18:52:54.241737+00:00", "meta": {"OBJECT_NAME": "STARLINK-35796", "OBJECT_ID": "2025-265AB", "EPOCH": "2025-12-13T20:00:03.000384", "MEAN_MOTION": 15.45472396, "ECCENTRICITY": 0.00010998, "INCLINATION": 43.0006, "RA_OF_ASC_NODE": 47.5316, "ARG_OF_PERICENTER": 287.9565, "MEAN_ANOMALY": 238.2959, "EPHEMERIS_TYPE": 0, "CLASSIFICATION_TYPE": "U", "NORAD_CAT_ID": 66541, "ELEMENT_SET_NO": 999, "REV_AT_EPOCH": 517, "BSTAR": -0.047497527, "MEAN_MOTION_DOT": -0.02069858, "MEAN_MOTION_DDOT": 0}, "tle": {"line1": "1 66541U 25265AB  25347.83336806 -.02069858  00000+0 -47498-1 0  9992", "line2": "2 66541  43.0006  47.5316 0001099 287.9565 238.2959 15.45472396  5171"}}, "geometry": {"type": "Point", "coordinates": [105.01535040065272, 39.70305283372347]}}, {"type": "Feature", "properties": {"norad_id": 66542, "name": "STARLINK-35833", "group": "last-30-days", "lat": 40.62056576045227, "lon": 154.92486869243265, "alt_km": 408.9842108333296, "timestamp": "2025-12-14T18:52:54.241747+00:00", "meta": {"OBJECT_NAME": "STARLINK-35833", "OBJECT_ID": "2025-265AC", "EPOCH": "2025-12-13T20:46:47.765568", "MEAN_MOTION": 15.50597486, "ECCENTRICITY": 0.0001633, "INCLINATION": 42.9989, "RA_OF_ASC_NODE": 47.3121, "ARG_OF_PERICENTER": 282.13, "MEAN_ANOMALY": 77.9378, "EPHEMERIS_TYPE": 0, "CLASSIFICATION_TYPE": "U", "NORAD_CAT_ID": 66542, "ELEMENT_SET_NO": 999, "REV_AT_EPOCH": 393, "BSTAR": 0.0019500496, "MEAN_MOTION_DOT": 0.00115843, "MEAN_MOTION_DDOT": 0}, "tle": {"line1": "1 66542U 25265AC  25347.86583062  .00115843  00000+0  19500-2 0  9990", "line2": "2 66542  42.9989  47.3121 0001633 282.1300  77.9378 15.50597486  3939"}}, "geometry": {"type": "Point", "coordinates": [154.92486869243265, 40.62056576045227]}}, {"type": "Feature", "properties": {"norad_id": 66543, "name": "STARLINK-35315", "group": "last-30-days", "lat": 40.14237200438495, "lon": 157.09144327258963, "alt_km": 409.0626377628787, "timestamp": "2025-12-14T18:52:54.241757+00:00", "meta": {"OBJECT_NAME": "STARLINK-35315", "OBJECT_ID": "2025-265AD", "EPOCH": "2025-12-13T20:46:18.204672", "MEAN_MOTION": 15.50578054, "ECCENTRICITY": 0.00012545, "INCLINATION": 42.9997, "RA_OF_ASC_NODE": 47.3094, "ARG_OF_PERICENTER": 267.5322, "MEAN_ANOMALY": 92.5394, "EPHEMERIS_TYPE": 0, "CLASSIFICATION_TYPE": "U", "NORAD_CAT_ID": 66543, "ELEMENT_SET_NO": 999, "REV_AT_EPOCH": 393, "BSTAR": 0.0012393516, "MEAN_MOTION_DOT": 0.00073044, "MEAN_MOTION_DDOT": 0}, "tle": {"line1": "1 66543U 25265AD  25347.86548848  .00073044  00000+0  12394-2 0  9994", "line2": "2 66543  42.9997  47.3094 0001254 267.5322  92.5394 15.50578054  3939"}}, "geometry": {"type": "Point", "coordinates": [157.09144327258963, 40.14237200438495]}}, {"type": "Feature", "properties": {"norad_id": 66544, "name": "STARLINK-35728", "group": "last-30-days", "lat": 39.48937693036065, "lon": 159.7491692260033, "alt_km": 408.8699118266495, "timestamp": "2025-12-14T18:52:54.241769+00:00", "meta": {"OBJECT_NAME": "STARLINK-35728", "OBJECT_ID": "2025-265AE", "EPOCH": "2025-12-13T20:45:48.585024", "MEAN_MOTION": 15.50591594, "ECCENTRICITY": 0.00013335, "INCLINATION": 43.0002, "RA_OF_ASC_NODE": 47.3058, "ARG_OF_PERICENTER": 278.4265, "MEAN_ANOMALY": 81.6444, "EPHEMERIS_TYPE": 0, "CLASSIFICATION_TYPE": "U", "NORAD_CAT_ID": 66544, "ELEMENT_SET_NO": 999, "REV_AT_EPOCH": 393, "BSTAR": 0.0022494991, "MEAN_MOTION_DOT": 0.00133967, "MEAN_MOTION_DDOT": 0}, "tle": {"line1": "1 66544U 25265AE  25347.86514566  .00133967  00000+0  22495-2 0  9999", "line2": "2 66544  43.0002  47.3058 0001333 278.4265  81.6444 15.50591594  3933"}}, "geometry": {"type": "Point", "coordinates": [159.7491692260033, 39.48937693036065]}}]}